GALAXY 25 (G-25)        
1 24812C 97026A   23124.00000000 -.00000242  00000-0  00000-0 0  1242
2 24812   4.4946  80.3267 0011444 340.9298 290.8557  0.99039674    15
GALAXY 25 (G-25)        
1 24812C 97026A   23128.00000000 -.00000250  00000-0  00000-0 0  1289
2 24812   4.5091  80.3438 0012337 342.5115 275.3380  0.99037671    12
INTELSAT 5 (IS-5)   [PM]
1 24916C 97046A   23123.00000000  .00000035  00000-0  00000-0 0  1236
2 24916   7.9116  58.7293 0001842  36.2340 291.8654  1.00268349    14
INTELSAT 5 (IS-5)       
1 24916C 97046A   23124.00000000  .00000035  00000-0  00000-0 0  1248
2 24916   7.9149  58.7174 0002031  37.8548 291.2363  1.00268691    17
INTELSAT 5 (IS-5)       
1 24916C 97046A   23128.00000000  .00000034  00000-0  00000-0 0  1285
2 24916   7.9267  58.7111 0002704  43.3507 289.6666  1.00269333    14
GALAXY 11 (G-11)        
1 26038C 99071A   23124.00000000 -.00000072  00000-0  00000-0 0  1247
2 26038   3.8199  83.9878 0001930  28.1304  16.4024  1.00271604    14
GALAXY 11 (G-11)        
1 26038C 99071A   23128.00000000 -.00000072  00000-0  00000-0 0  1285
2 26038   3.8347  83.9830 0002185  27.8788  20.6003  1.00271437    10
INTELSAT 9 (IS-9)   [PM]
1 26451C 00043A   23121.66089120 -.00000191  00000-0  00000-0 0  1215
2 26451   7.8929  58.9096 0003232  33.9300 314.3833  1.00274759    11
INTELSAT 9 (IS-9)       
1 26451C 00043A   23124.00000000 -.00000191  00000-0  00000-0 0  1249
2 26451   7.8997  58.9041 0005786 344.6808 128.0720  1.00268835    10
INTELSAT 9 (IS-9)       
1 26451C 00043A   23128.00000000 -.00000191  00000-0  00000-0 0  1287
2 26451   7.9113  58.9003 0005662 347.6586 129.0445  1.00266622    15
INTELSAT 1R (IS-1R)     
1 26608C 00072A   23124.00000000 -.00000046  00000-0  00000-0 0  1244
2 26608   5.2599  76.2922 0001248  62.2011 240.2735  1.00269881    18
INTELSAT 1R (IS-1R)     
1 26608C 00072A   23128.00000000 -.00000046  00000-0  00000-0 0  1282
2 26608   5.2776  76.2762 0001422  56.5956 249.8442  1.00269215    16
INTELSAT 10 (IS-10)     
1 26766C 01019A   23124.00000000  .00000127  00000-0  00000-0 0  1240
2 26766   6.3406  70.4985 0003539 354.0482 334.8722  1.00270847    16
INTELSAT 10 (IS-10)     
1 26766C 01019A   23128.00000000  .00000127  00000-0  00000-0 0  1288
2 26766   6.3544  70.4864 0003909   1.2146 331.6673  1.00272071    15
INTELSAT 10 (IS-10) [PM]
1 26766C 01019A   23130.80471065  .00000127  00000-0  00000-0 0  1305
2 26766   6.3595  70.5004 0002565 333.2595 292.0895  1.00267974    13
INTELSAT 901            
1 26824C 01024A   23124.00000000 -.00000138  00000-0  00000-0 0  1244
2 26824   0.0034 126.9830 0000996 307.1737 119.9590  1.00269862    11
INTELSAT 901            
1 26824C 01024A   23128.00000000 -.00000114  00000-0  00000-0 0  1286
2 26824   0.0412  76.7620 0001212   7.5698 113.7372  1.00270711    14
INTELSAT 902            
1 26900C 01039A   23124.00000000 -.00000192  00000-0  00000-0 0  1245
2 26900   3.2131  85.3282 0004278 341.7844 104.4331  1.00272388    17
INTELSAT 902            
1 26900C 01039A   23128.00000000 -.00000192  00000-0  00000-0 0  1283
2 26900   3.2284  85.3081 0004524 346.9221 103.2602  1.00270369    18
INTELSAT 902        [PM]
1 26900C 01039A   23128.87587963 -.00000192  00000-0  00000-0 0  1286
2 26900   3.2313  85.3237 0004181 349.7568  56.5815  1.00272508    11
INTELSAT 904            
1 27380C 02007A   23124.00000000 -.00000123  00000-0  00000-0 0  1248
2 27380   4.0403  82.4101 0004036 329.7099 140.0353  1.00271265    12
INTELSAT 904            
1 27380C 02007A   23128.00000000 -.00000123  00000-0  00000-0 0  1286
2 27380   4.0554  82.3892 0004121 335.2364 138.4715  1.00269856    13
INTELSAT 904        [PM]
1 27380C 02007A   23132.83673611 -.00000123  00000-0  00000-0 0  1321
2 27380   4.0649  82.3894 0003593 343.7271  75.9381  1.00272136    12
INTELSAT 905        [PM]
1 27438C 02027A   23121.65400463 -.00000094  00000-0  00000-0 0  1213
2 27438   3.8568  83.1766 0002446 315.6332  31.4497  1.00273017    16
INTELSAT 905            
1 27438C 02027A   23124.00000000 -.00000094  00000-0  00000-0 0  1241
2 27438   3.8638  83.1166 0003630 319.5287 154.5036  1.00271807    17
INTELSAT 905            
1 27438C 02027A   23128.00000000 -.00000094  00000-0  00000-0 0  1289
2 27438   3.8789  83.0945 0003661 325.6522 152.3531  1.00270724    15
GALAXY 3C (G-3C)        
1 27445C 02030A   23124.00000000 -.00000062  00000-0  00000-0 0  1248
2 27445   0.7745  90.9747 0000427  21.6102  14.1945  1.00271454    17
GALAXY 3C (G-3C)        
1 27445C 02030A   23128.00000000 -.00000062  00000-0  00000-0 0  1286
2 27445   0.7899  90.9701 0000542  25.1727  14.5767  1.00271433    10
INTELSAT 906        [PM]
1 27513C 02041A   23117.62065972  .00000105  00000-0  00000-0 0  1174
2 27513   2.8713  86.8546 0003571 327.2026  88.8723  1.00271254    15
INTELSAT 906            
1 27513C 02041A   23124.00000000  .00000105  00000-0  00000-0 0  1243
2 27513   2.8838  86.6860 0004155 331.8752 227.2195  1.00273011    11
INTELSAT 906            
1 27513C 02041A   23128.00000000  .00000105  00000-0  00000-0 0  1281
2 27513   2.8997  86.6652 0004315 337.2972 225.7718  1.00273568    19
INTELSAT 906        [PM]
1 27513C 02041A   23130.19535880  .00000105  00000-0  00000-0 0  1306
2 27513   2.9052  86.7106 0004023 341.8257 293.7062  1.00268894    13
GALAXY 12 (G-12)        
1 27715C 03013B   23124.00000000  .00000149  00000-0  00000-0 0  1245
2 27715   4.0731  82.0889 0001797 340.6364  29.9050  1.00271819    19
GALAXY 12 (G-12)        
1 27715C 03013B   23128.00000000  .00000149  00000-0  00000-0 0  1283
2 27715   4.0886  82.0718 0002016 349.0813  25.4128  1.00272722    19
GALAXY 12 (G-12)    [PM]
1 27715C 03013B   23129.70622685  .00000149  00000-0  00000-0 0  1291
2 27715   4.0927  82.0989 0001510 316.0325 314.3705  1.00269591    16
GALAXY 23 (G-23)        
1 27854C 03034A   23124.00000000  .00000103  00000-0  00000-0 0  1242
2 27854   0.2432  94.5979 0003135 313.1766  52.8618  1.00272315    13
GALAXY 23 (G-23)    [PM]
1 27854C 03034A   23126.58921296  .00000103  00000-0  00000-0 0  1268
2 27854   0.2534  94.6051 0003228 316.2781 264.4317  1.00270696    19
GALAXY 23 (G-23)        
1 27854C 03034A   23128.00000000  .00000103  00000-0  00000-0 0  1280
2 27854   0.2593  94.9614 0003250 318.4302  51.1910  1.00270357    14
GALAXY 23 (G-23)    [PM]
1 27854C 03034A   23128.54290509  .00000103  00000-0  00000-0 0  1284
2 27854   0.2617  95.1568 0003289 319.0738 246.3313  1.00270668    14
GALAXY 13               
1 27954C 03044A   23124.00000000 -.00000067  00000-0  00000-0 0  1244
2 27954   0.0369  84.2922 0002132 322.2834  48.0820  1.00270807    14
GALAXY 13           [PM]
1 27954C 03044A   23124.71862269  .00000138  00000-0  00000-0 0  1243
2 27954   0.0087 345.4349 0002160  64.1834 304.4507  1.00271278    13
GALAXY 13               
1 27954C 03044A   23128.00000000  .00000138  00000-0  00000-0 0  1280
2 27954   0.0068 287.7535 0002387 130.7504  40.0940  1.00269420    12
INTELSAT 10-02          
1 28358C 04022A   23124.00000000  .00000025  00000-0  00000-0 0  1243
2 28358   0.0072 160.1135 0001238 270.8917 149.6620  1.00271072    11
INTELSAT 10-02          
1 28358C 04022A   23128.00000000  .00000079  00000-0  00000-0 0  1280
2 28358   0.0459  98.5756 0001160 328.7813 157.2482  1.00269861    19
GALAXY 28 (G-28)        
1 28702C 05022A   23124.00000000 -.00000095  00000-0  00000-0 0  1245
2 28702   0.3477  90.9360 0003037 310.1920  91.5080  1.00272141    10
GALAXY 28 (G-28)    [PM]
1 28702C 05022A   23127.66666667 -.00000096  00000-0  00000-0 0  1271
2 28702   0.3602  91.2427 0002909 310.6025 334.4124  1.00271575    14
GALAXY 28 (G-28)        
1 28702C 05022A   23128.00000000 -.00000096  00000-0  00000-0 0  1284
2 28702   0.3635  91.1609 0002959 311.6015  93.8228  1.00271606    12
GALAXY 28 (G-28)    [PM]
1 28702C 05022A   23128.59143519 -.00000096  00000-0  00000-0 0  1281
2 28702   0.3654  91.2929 0003007 312.3867 306.4045  1.00271612    14
GALAXY 14 (G-14)        
1 28790C 05030A   23124.00000000  .00000246  00000-0  00000-0 0  1248
2 28790   2.0740  88.5539 0001935 320.6397 205.3617  1.00274748    15
GALAXY 14 (G-14)    [PM]
1 28790C 05030A   23125.63194444  .00000245  00000-0  00000-0 0  1254
2 28790   2.0803  88.5052 0001705 322.4801  72.6670  1.00270129    13
GALAXY 14 (G-14)        
1 28790C 05030A   23128.00000000  .00000245  00000-0  00000-0 0  1285
2 28790   2.0900  88.5335 0001931 318.2910 211.6498  1.00270832    14
GALAXY 15 (G-15)        
1 28884C 05041A   23124.00000000  .00000222  00000-0  00000-0 0  1248
2 28884   0.6277  91.5520 0002350 329.7296   5.9594  0.99733230    13
GALAXY 15 (G-15)        
1 28884C 05041A   23128.00000000  .00000208  00000-0  00000-0 0  1280
2 28884   0.6414  91.6494 0020262 148.4996 182.6201  0.99374874    15
GALAXY 15 (G-15)    [PM]
1 28884C 05041A   23128.09375000  .00000203  00000-0  00000-0 0  1289
2 28884   0.6392  91.7298 0000306  94.5677 269.8953  0.99063338    19
GALAXY 15 (G-15)    [PM]
1 28884C 05041A   23128.61233796  .00000196  00000-0  00000-0 0  1283
2 28884   0.6468  91.7714 0000576 274.4193 274.9214  0.99054825    15
GALAXY 16 (G-16)        
1 29236C 06023A   23124.00000000 -.00000037  00000-0  00000-0 0  1246
2 29236   0.0147 257.5468 0002962 149.9796  75.1224  1.00271246    12
GALAXY 16 (G-16)        
1 29236C 06023A   23128.00000000 -.00000028  00000-0  00000-0 0  1284
2 29236   0.0421 103.6750 0003110 313.4664  69.4410  1.00270723    12
GALAXY 16 (G-16)    [PM]
1 29236C 06023A   23130.02043982 -.00003315  00000-0  00000-0 0  1300
2 29236   0.0184 169.2733 0002891 244.4051  82.2591  1.00270030    19
GALAXY 17 (G-17)        
1 31307C 07016B   23124.00000000 -.00000091  00000-0  00000-0 0  1241
2 31307   0.0705  89.0856 0004638 335.1828  67.0704  1.00455963    13
